[{"OBJECT_NAME":"STARLINK-30758","OBJECT_ID":"2023-162R","EPOCH":"2026-03-09T13:08:07.564128","MEAN_MOTION":15.26920058,"ECCENTRICITY":0.0002801,"INCLINATION":43.0036,"RA_OF_ASC_NODE":130.0263,"ARG_OF_PERICENTER":273.5061,"MEAN_ANOMALY":86.547,"EPHEMERIS_TYPE":0,"CLASSIFICATION_TYPE":"U","NORAD_CAT_ID":58133,"ELEMENT_SET_NO":999,"REV_AT_EPOCH":13232,"BSTAR":0.0014419,"MEAN_MOTION_DOT":0.00038835,"MEAN_MOTION_DDOT":0},{"OBJECT_NAME":"SL-3 DEB","OBJECT_ID":"1988-032D","EPOCH":"2026-03-09T21:36:49.536576","MEAN_MOTION":15.21301321,"ECCENTRICITY":0.00302448,"INCLINATION":97.5102,"RA_OF_ASC_NODE":52.3226,"ARG_OF_PERICENTER":221.5268,"MEAN_ANOMALY":138.367,"EPHEMERIS_TYPE":0,"CLASSIFICATION_TYPE":"U","NORAD_CAT_ID":25655,"ELEMENT_SET_NO":999,"REV_AT_EPOCH":5124,"BSTAR":0.00031081119,"MEAN_MOTION_DOT":6.967e-5,"MEAN_MOTION_DDOT":0}]
